     2.100          NAVIGATION                              RINEX VERSION / TYPE
fic2rin                                 04/02/2014 00:15:50 PGM / RUN BY / DATE
                                                            END OF HEADER
 3 14  4  1 16  0  0.0  .346156768501D-03  .477484718431D-11  .000000000000D+00
     .840000000000D+02  .485312500000D+02  .507842582253D-08  .197155674396D+01
     .230781733990D-05  .168289501453D-01  .741146504879D-05  .515377677917D+04
     .230400000000D+06  .167638063431D-06 -.189573127439D+01 -.409781932831D-06
     .937446716350D+00  .222531250000D+03  .137228240011D+01 -.824248618978D-08
     .601453624386D-09  .100000000000D+01  .178600000000D+04  .000000000000D+00
     .240000000000D+01  .000000000000D+00 -.465661287308D-08  .840000000000D+02
     .223206000000D+06  .400000000000D+01
 4 14  4  1 16  0  0.0  .639073550701D-05  .113686837722D-12  .000000000000D+00
     .150000000000D+02 -.525625000000D+02  .528986320118D-08 -.110081446774D+01
    -.236742198467D-05  .105592975160D-01  .631250441074D-05  .515370965958D+04
     .230400000000D+06  .633299350739D-07 -.705175252786D+00  .232830643654D-06
     .938359657692D+00  .241968750000D+03  .108666791386D+01 -.854071289783D-08
    -.370015412627D-09  .100000000000D+01  .178600000000D+04  .000000000000D+00
     .240000000000D+01  .000000000000D+00 -.605359673500D-08  .150000000000D+02
     .223206000000D+06  .400000000000D+01
 5 14  4  1 16  0  0.0 -.381297897547D-03  .204636307899D-11  .000000000000D+00
     .137000000000D+03  .552187500000D+02  .460019161645D-08 -.219328854985D+01
     .257790088654D-05  .356638885569D-02  .129062682390D-04  .515357305908D+04
     .230400000000D+06  .409781932831D-07  .345685003968D+00 -.106170773506D-06
     .947951315189D+00  .124593750000D+03  .338013199698D+00 -.797283210046D-08
    -.407159816984D-10  .100000000000D+01  .178600000000D+04  .000000000000D+00
     .340000000000D+01  .000000000000D+00 -.102445483208D-07  .137000000000D+03
     .223206000000D+06  .400000000000D+01
 7 14  4  1 16  0  0.0  .330492388457D-03  .420641299570D-11  .000000000000D+00
     .520000000000D+02 -.867187500000D+02  .446232873105D-08  .538703761231D+00
    -.453367829323D-05  .713248678949D-02  .427663326263D-05  .515364318466D+04
     .230400000000D+06  .204890966415D-07  .246769868112D+01  .186264514923D-07
     .973772852108D+00  .299218750000D+03 -.283869598754D+01 -.834927635230D-08
    -.552165857067D-09  .100000000000D+01  .178600000000D+04  .000000000000D+00
     .240000000000D+01  .000000000000D+00 -.107102096081D-07  .520000000000D+02
     .223206000000D+06  .400000000000D+01
 8 14  4  1 16  0  0.0  .126590020955D-04  .227373675443D-12  .000000000000D+00
     .290000000000D+02 -.951562500000D+02  .389837666875D-08 -.204718400715D-01
    -.511854887009D-05  .135717833182D-01  .565871596336D-05  .515348592758D+04
     .230400000000D+06  .800937414169D-07  .256584823815D+01  .987201929092D-07
     .997040003861D+00  .286156250000D+03 -.278218175052D+01 -.810390898891D-08
    -.565023535498D-09  .100000000000D+01  .178600000000D+04  .000000000000D+00
     .340000000000D+01  .000000000000D+00 -.419095158577D-08  .290000000000D+02
     .223206000000D+06  .400000000000D+01
 9 14  4  1 16  0  0.0  .316855963320D-03  .284217094304D-11  .000000000000D+00
     .280000000000D+02 -.962500000000D+02  .415053002909D-08  .163294870568D+01
    -.555068254471D-05  .170473516919D-01  .406615436077D-05  .515368754578D+04
     .230400000000D+06  .229105353355D-06  .244686591429D+01 -.284984707832D-06
     .982307002698D+00  .307156250000D+03  .178251725115D+01 -.799961893052D-08
    -.552165857067D-09  .100000000000D+01  .178600000000D+04  .000000000000D+00
     .240000000000D+01  .000000000000D+00 -.605359673500D-08  .280000000000D+02
     .223206000000D+06  .400000000000D+01
10 14  4  1 16  0  0.0 -.120192300528D-03 -.136424205266D-11  .000000000000D+00
     .410000000000D+02  .630625000000D+02  .471912514193D-08 -.188403838085D+01
     .299885869026D-05  .134863692801D-01  .118017196655D-04  .515372378731D+04
     .230400000000D+06  .182539224625D-06  .363262479638D+00 -.856816768646D-07
     .942747439089D+00  .138625000000D+03  .861616302120D+00 -.786961351528D-08
     .107147320259D-09  .100000000000D+01  .178600000000D+04  .000000000000D+00
     .240000000000D+01  .000000000000D+00 -.279396772385D-08  .410000000000D+02
     .223206000000D+06  .400000000000D+01
11 14  4  1 16  0  0.0 -.477042980492D-03 -.318323145621D-11  .000000000000D+00
     .550000000000D+02 -.287187500000D+02  .674849538764D-08  .733247325323D+00
    -.159442424774D-05  .148285442265D-01  .373460352421D-05  .515369261742D+04
     .230400000000D+06 -.167638063431D-06 -.101276078925D+01  .130385160446D-07
     .890069112254D+00  .271687500000D+03  .127320012162D+01 -.955289791654D-08
    -.222152110670D-09  .100000000000D+01  .178600000000D+04  .000000000000D+00
     .240000000000D+01  .000000000000D+00 -.116415321827D-07  .550000000000D+02
     .223206000000D+06  .400000000000D+01
12 14  4  1 16  0  0.0  .195859465748D-03  .238742359215D-11  .000000000000D+00
     .580000000000D+02 -.424687500000D+02  .363479426091D-08  .151128433072D+00
    -.224821269512D-05  .503978913184D-02  .130478292704D-04  .515365721512D+04
     .230400000000D+06  .782310962677D-07 -.275381840222D+01  .782310962677D-07
     .987381707520D+00  .139562500000D+03  .377676829447D+00 -.761567436626D-08
     .860750139413D-10  .100000000000D+01  .178600000000D+04  .000000000000D+00
     .240000000000D+01  .000000000000D+00 -.121071934700D-07  .580000000000D+02
     .223206000000D+06  .400000000000D+01
13 14  4  1 16  0  0.0  .142049975693D-04 -.386535248253D-11  .000000000000D+00
     .190000000000D+02  .779375000000D+02  .456769026263D-08  .289409564483D+01
     .417977571487D-05  .534761836752D-02  .336393713951D-05  .515361303139D+04
     .230400000000D+06  .838190317154D-07  .150248572550D+01  .178813934326D-06
     .977817997610D+00  .325031250000D+03  .221584928773D+01 -.827927343640D-08
     .279654505876D-09  .100000000000D+01  .178600000000D+04  .000000000000D+00
     .240000000000D+01  .000000000000D+00 -.111758708954D-07  .190000000000D+02
     .223206000000D+06  .400000000000D+01
14 14  4  1 16  0  0.0  .185435172170D-03 -.329691829393D-11  .000000000000D+00
     .101000000000D+03  .919375000000D+02  .467233747875D-08 -.305843447831D+01
     .481121242046D-05  .732515926939D-02  .375881791115D-05  .515363937569D+04
     .230400000000D+06  .111758708954D-06  .147100248349D+01 -.182539224625D-06
     .970411718823D+00  .309125000000D+03 -.199823418451D+01 -.829141679936D-08
     .305369862738D-09  .100000000000D+01  .178600000000D+04  .000000000000D+00
     .240000000000D+01  .000000000000D+00 -.884756445885D-08  .101000000000D+03
     .223206000000D+06  .400000000000D+01
15 14  4  1 16  0  0.0 -.171476975083D-03 -.216004991671D-11  .000000000000D+00
     .104000000000D+03  .108875000000D+03  .545165565477D-08  .262621125757D+01
     .560842454433D-05  .622791226488D-02  .407546758652D-05  .515366844177D+04
     .230400000000D+06 -.108033418655D-06  .136076788894D+01 -.577419996262D-07
     .937062810073D+00  .289656250000D+03  .271279457318D+00 -.864178853661D-08
     .380372986919D-09  .100000000000D+01  .178600000000D+04  .000000000000D+00
     .340000000000D+01  .000000000000D+00 -.102445483208D-07  .104000000000D+03
     .223206000000D+06  .400000000000D+01
16 14  4  1 16  0  0.0 -.225188676268D-03  .170530256582D-11  .000000000000D+00
     .140000000000D+02 -.447812500000D+02  .351836083957D-08 -.202801579824D+01
    -.236369669437D-05  .769920146558D-02  .126175582409D-04  .515356712914D+04
     .230400000000D+06 -.353902578354D-07 -.273529942758D+01 -.521540641785D-07
     .987989901082D+00  .152437500000D+03  .169759051763D+00 -.743602402596D-08
     .214294640518D-09  .100000000000D+01  .178600000000D+04  .000000000000D+00
     .240000000000D+01  .000000000000D+00 -.977888703346D-08  .140000000000D+02
     .223206000000D+06  .400000000000D+01
17 14  4  1 16  0  0.0 -.813840888441D-04 -.318323145621D-11  .000000000000D+00
     .660000000000D+02  .467812500000D+02  .450661629009D-08 -.300022773578D+01
     .243261456490D-05  .927248399239D-02  .577792525291D-05  .515356214333D+04
     .230400000000D+06  .372529029846D-07 -.170269634311D+01 -.447034835815D-07
     .967754307651D+00  .270937500000D+03 -.210717173980D+01 -.796926052312D-08
     .532522181686D-09  .100000000000D+01  .178600000000D+04  .000000000000D+00
     .240000000000D+01  .000000000000D+00 -.102445483208D-07  .660000000000D+02
     .223206000000D+06  .400000000000D+01
18 14  4  1 16  0  0.0  .310652423650D-03  .227373675443D-11  .000000000000D+00
     .620000000000D+02  .528437500000D+02  .509556939378D-08 -.136129668116D+01
     .291876494884D-05  .149866421707D-01  .127702951431D-04  .515368720627D+04
     .230400000000D+06  .273808836937D-06  .341603011948D+00  .238418579102D-06
     .926518882145D+00  .111625000000D+03 -.205210256009D+01 -.817462622028D-08
    -.771460705864D-10  .100000000000D+01  .178600000000D+04  .000000000000D+00
     .240000000000D+01  .000000000000D+00 -.107102096081D-07  .620000000000D+02
     .223206000000D+06  .400000000000D+01
19 14  4  1 16  0  0.0 -.448381062597D-03 -.238742359215D-11  .000000000000D+00
     .147000000000D+03  .440625000000D+02  .464983654150D-08  .252367994929D+01
     .228919088840D-05  .101184209343D-01  .575557351112D-05  .515359092140D+04
     .230400000000D+06 -.191852450371D-06 -.165167949330D+01 -.122934579849D-06
     .964873295303D+00  .271281250000D+03  .409796452524D+00 -.813605318499D-08
     .506806824824D-09  .100000000000D+01  .178600000000D+04  .000000000000D+00
     .240000000000D+01  .000000000000D+00 -.149011611938D-07  .147000000000D+03
     .223206000000D+06  .400000000000D+01
